[{"OBJECT_NAME":"STARLINK-31935","OBJECT_ID":"2024-098U","EPOCH":"2026-03-09T13:25:49.135008","MEAN_MOTION":15.27574978,"ECCENTRICITY":7.405e-5,"INCLINATION":43.0015,"RA_OF_ASC_NODE":278.9536,"ARG_OF_PERICENTER":273.1811,"MEAN_ANOMALY":86.8956,"EPHEMERIS_TYPE":0,"CLASSIFICATION_TYPE":"U","NORAD_CAT_ID":59876,"ELEMENT_SET_NO":999,"REV_AT_EPOCH":10182,"BSTAR":-6.226041e-6,"MEAN_MOTION_DOT":-4.33e-6,"MEAN_MOTION_DDOT":0},{"OBJECT_NAME":"BANDWAGON-4 OBJECT M","OBJECT_ID":"2025-248M","EPOCH":"2026-03-09T00:50:26.830464","MEAN_MOTION":15.24295413,"ECCENTRICITY":0.00129441,"INCLINATION":45.4108,"RA_OF_ASC_NODE":294.9904,"ARG_OF_PERICENTER":207.5285,"MEAN_ANOMALY":152.4918,"EPHEMERIS_TYPE":0,"CLASSIFICATION_TYPE":"U","NORAD_CAT_ID":66304,"ELEMENT_SET_NO":999,"REV_AT_EPOCH":1803,"BSTAR":0.00095703617,"MEAN_MOTION_DOT":0.00023645,"MEAN_MOTION_DDOT":0}]
