STARLINK-31935          
1 59876U 24098U   26068.55959647 -.00000433  00000+0 -62260-5 0  9992
2 59876  43.0015 278.9536 0000740 273.1811  86.8956 15.27574978101823
BANDWAGON-4 OBJECT M    
1 66304U 25248M   26068.03503276  .00023645  00000+0  95704-3 0  9995
2 66304  45.4108 294.9904 0012944 207.5285 152.4918 15.24295413 18037
